IRIDIUM 63              
1 25286U 98021B   25190.74781126  .00000246  00000+0  76932-4 0  9998
2 25286  86.3959  72.6667 0002080  90.3600 269.7836 14.36558376427357
IRIDIUM 69              
1 25319U 98026A   25190.83011668  .00000327  00000+0  95629-4 0  9991
2 25319  86.3961  85.8552 0001724  12.7134 347.4109 14.40985163426562
IRIDIUM 71              
1 25320U 98026B   25190.76455663  .00000273  00000+0  78607-4 0  9999
2 25320  86.3956  80.5690 0003446  49.3873 310.7626 14.41172592427093
IRIDIUM 73              
1 25344U 98032C   25190.80806678  .00000336  00000+0  78517-4 0  9993
2 25344  86.4397  37.2058 0001578  84.6631 275.4754 14.51732923434148
IRIDIUM 82              
1 25467U 98051A   25190.81313945  .00012899  00000+0  36106-3 0  9995
2 25467  86.3669  98.6069 0082041 208.5974 151.0765 15.33083690427424
